{
  "type": "FeatureCollection",
  "features": [
    {
      "type": "Feature",
      "properties": { "name": "Dolmen Mall Clifton" },
      "geometry": { "type": "Point", "coordinates": [67.0330, 24.8138] }
    },
    {
      "type": "Feature",
      "properties": { "name": "Clifton Beach" },
      "geometry": { "type": "Point", "coordinates": [67.0281, 24.8007] }
    },
    {
      "type": "Feature",
      "properties": { "name": "Boat Basin" },
      "geometry": { "type": "Point", "coordinates": [67.0250, 24.8125] }
    },
    {
      "type": "Feature",
      "properties": { "name": "Do Darya" },
      "geometry": { "type": "Point", "coordinates": [67.0873, 24.7723] }
    },
    {
      "type": "Feature",
      "properties": { "name": "Zamzama Park" },
      "geometry": { "type": "Point", "coordinates": [67.0416, 24.8120] }
    },
    {
      "type": "Feature",
      "properties": { "name": "Habitt Clifton" },
      "geometry": { "type": "Point", "coordinates": [67.0335, 24.8159] }
    },
    {
      "type": "Feature",
      "properties": { "name": "Clifton Clock Tower" },
      "geometry": { "type": "Point", "coordinates": [67.0346, 24.8021] }
    },
    {
      "type": "Feature",
      "properties": { "name": "Bin Qasim Park" },
      "geometry": { "type": "Point", "coordinates": [67.0312, 24.8043] }
    },
    {
      "type": "Feature",
      "properties": { "name": "Shrine of Abdullah Shah Ghazi" },
      "geometry": { "type": "Point", "coordinates": [67.0305, 24.8087] }
    },
    {
      "type": "Feature",
      "properties": { "name": "Park Towers" },
      "geometry": { "type": "Point", "coordinates": [67.0310, 24.8143] }
    },

    {
      "type": "Feature",
      "properties": {
        "from": "Dolmen Mall Clifton",
        "to": "Park Towers",
        "distance": 0.4
      },
      "geometry": {
        "type": "LineString",
        "coordinates": [
          [67.0330, 24.8138],
          [67.0310, 24.8143]
        ]
      }
    },
    {
      "type": "Feature",
      "properties": {
        "from": "Clifton Beach",
        "to": "Shrine of Abdullah Shah Ghazi",
        "distance": 0.6
      },
      "geometry": {
        "type": "LineString",
        "coordinates": [
          [67.0281, 24.8007],
          [67.0305, 24.8087]
        ]
      }
    },
    {
      "type": "Feature",
      "properties": {
        "from": "Bin Qasim Park",
        "to": "Shrine of Abdullah Shah Ghazi",
        "distance": 0.3
      },
      "geometry": {
        "type": "LineString",
        "coordinates": [
          [67.0312, 24.8043],
          [67.0305, 24.8087]
        ]
      }
    },
    {
      "type": "Feature",
      "properties": {
        "from": "Habitt Clifton",
        "to": "Dolmen Mall Clifton",
        "distance": 0.2
      },
      "geometry": {
        "type": "LineString",
        "coordinates": [
          [67.0335, 24.8159],
          [67.0330, 24.8138]
        ]
      }
    },
    {
      "type": "Feature",
      "properties": {
        "from": "Zamzama Park",
        "to": "Boat Basin",
        "distance": 0.9
      },
      "geometry": {
        "type": "LineString",
        "coordinates": [
          [67.0416, 24.8120],
          [67.0250, 24.8125]
        ]
      }
    },
    {
      "type": "Feature",
      "properties": {
        "from": "Boat Basin",
        "to": "Clifton Beach",
        "distance": 0.7
      },
      "geometry": {
        "type": "LineString",
        "coordinates": [
          [67.0250, 24.8125],
          [67.0281, 24.8007]
        ]
      }
    },
    {
      "type": "Feature",
      "properties": {
        "from": "Do Darya",
        "to": "Clifton Beach",
        "distance": 3.2
      },
      "geometry": {
        "type": "LineString",
        "coordinates": [
          [67.0873, 24.7723],
          [67.0281, 24.8007]
        ]
      }
    },
    {
      "type": "Feature",
      "properties": {
        "from": "Clifton Clock Tower",
        "to": "Shrine of Abdullah Shah Ghazi",
        "distance": 0.5
      },
      "geometry": {
        "type": "LineString",
        "coordinates": [
          [67.0346, 24.8021],
          [67.0305, 24.8087]
        ]
      }
    }
  ]
}
